[{"OBJECT_NAME":"STARLINK-30070","OBJECT_ID":"2023-067V","EPOCH":"2026-03-09T21:56:43.677024","MEAN_MOTION":15.27573671,"ECCENTRICITY":0.00011029,"INCLINATION":43.0037,"RA_OF_ASC_NODE":269.8522,"ARG_OF_PERICENTER":281.1267,"MEAN_ANOMALY":78.9461,"EPHEMERIS_TYPE":0,"CLASSIFICATION_TYPE":"U","NORAD_CAT_ID":56707,"ELEMENT_SET_NO":999,"REV_AT_EPOCH":15573,"BSTAR":-7.810323e-6,"MEAN_MOTION_DOT":-4.77e-6,"MEAN_MOTION_DDOT":0},{"OBJECT_NAME":"COSMOS 2588","OBJECT_ID":"2025-109A","EPOCH":"2026-03-09T19:28:59.107008","MEAN_MOTION":15.29122656,"ECCENTRICITY":0.0005019,"INCLINATION":72.9704,"RA_OF_ASC_NODE":73.5401,"ARG_OF_PERICENTER":308.678,"MEAN_ANOMALY":51.3966,"EPHEMERIS_TYPE":0,"CLASSIFICATION_TYPE":"U","NORAD_CAT_ID":64095,"ELEMENT_SET_NO":999,"REV_AT_EPOCH":4442,"BSTAR":0.00032611,"MEAN_MOTION_DOT":9.169e-5,"MEAN_MOTION_DDOT":0}]
